{"type": "FeatureCollection", "features": [ {"type": "Feature", "properties": {"norad_id": 66559, "name": "STARLINK-35419", "group": "last-30-days", "lat": 42.661714692308514, "lon": -144.14619766757318, "alt_km": 409.6802381621419, "timestamp": "2025-12-10T11:33:52.172265+00:00", "meta": {"OBJECT_NAME": "STARLINK-35419", "OBJECT_ID": "2025-268C", "EPOCH": "2025-12-10T04:00:01.998720", "MEAN_MOTION": 15.50665327, "ECCENTRICITY": 0.0001953, "INCLINATION": 43.0006, "RA_OF_ASC_NODE": 136.2372, "ARG_OF_PERICENTER": 273.4235, "MEAN_ANOMALY": 208.9021, "EPHEMERIS_TYPE": 0, "CLASSIFICATION_TYPE": "U", "NORAD_CAT_ID": 66559, "ELEMENT_SET_NO": 999, "REV_AT_EPOCH": 425, "BSTAR": -0.0032983, "MEAN_MOTION_DOT": -0.0018982, "MEAN_MOTION_DDOT": 0}, "tle": {"line1": "1 66559U 25268C   25344.16668980 -.00189820  00000+0 -32983-2 0  9992", "line2": "2 66559  43.0006 136.2372 0001953 273.4235 208.9021 15.50665327  4257"}}, "geometry": {"type": "Point", "coordinates": [-144.14619766757318, 42.661714692308514]}}, {"type": "Feature", "properties": {"norad_id": 66560, "name": "STARLINK-35411", "group": "last-30-days", "lat": 42.82707089879475, "lon": -141.53899573837685, "alt_km": 409.78755181717224, "timestamp": "2025-12-10T11:33:52.172275+00:00", "meta": {"OBJECT_NAME": "STARLINK-35411", "OBJECT_ID": "2025-268D", "EPOCH": "2025-12-10T04:00:01.998720", "MEAN_MOTION": 15.5063128, "ECCENTRICITY": 0.0001993, "INCLINATION": 43.0007, "RA_OF_ASC_NODE": 136.2327, "ARG_OF_PERICENTER": 269.4964, "MEAN_ANOMALY": 214.7897, "EPHEMERIS_TYPE": 0, "CLASSIFICATION_TYPE": "U", "NORAD_CAT_ID": 66560, "ELEMENT_SET_NO": 999, "REV_AT_EPOCH": 425, "BSTAR": -0.0031687, "MEAN_MOTION_DOT": -0.00182326, "MEAN_MOTION_DDOT": 0}, "tle": {"line1": "1 66560U 25268D   25344.16668980 -.00182326  00000+0 -31687-2 0  9998", "line2": "2 66560  43.0007 136.2327 0001993 269.4964 214.7897 15.50631280  4255"}}, "geometry": {"type": "Point", "coordinates": [-141.53899573837685, 42.82707089879475]}}, {"type": "Feature", "properties": {"norad_id": 66561, "name": "STARLINK-35305", "group": "last-30-days", "lat": 42.977951153395594, "lon": -136.31701879909835, "alt_km": 409.5884430165406, "timestamp": "2025-12-10T11:33:52.172287+00:00", "meta": {"OBJECT_NAME": "STARLINK-35305", "OBJECT_ID": "2025-268E", "EPOCH": "2025-12-10T04:00:01.998720", "MEAN_MOTION": 15.5067478, "ECCENTRICITY": 0.0001864, "INCLINATION": 43.0005, "RA_OF_ASC_NODE": 136.2225, "ARG_OF_PERICENTER": 275.2066, "MEAN_ANOMALY": 212.8671, "EPHEMERIS_TYPE": 0, "CLASSIFICATION_TYPE": "U", "NORAD_CAT_ID": 66561, "ELEMENT_SET_NO": 999, "REV_AT_EPOCH": 420, "BSTAR": -0.0035418, "MEAN_MOTION_DOT": -0.00203522, "MEAN_MOTION_DDOT": 0}, "tle": {"line1": "1 66561U 25268E   25344.16668980 -.00203522  00000+0 -35418-2 0  9997", "line2": "2 66561  43.0005 136.2225 0001864 275.2066 212.8671 15.50674780  4202"}}, "geometry": {"type": "Point", "coordinates": [-136.31701879909835, 42.977951153395594]}}, {"type": "Feature", "properties": {"norad_id": 66562, "name": "STARLINK-35579", "group": "last-30-days", "lat": 42.9325842612273, "lon": -138.92885336456325, "alt_km": 409.7396580966788, "timestamp": "2025-12-10T11:33:52.172297+00:00", "meta": {"OBJECT_NAME": "STARLINK-35579", "OBJECT_ID": "2025-268F", "EPOCH": "2025-12-10T04:00:01.998720", "MEAN_MOTION": 15.50632103, "ECCENTRICITY": 0.0001934, "INCLINATION": 43.0008, "RA_OF_ASC_NODE": 136.2272, "ARG_OF_PERICENTER": 269.0873, "MEAN_ANOMALY": 217.1168, "EPHEMERIS_TYPE": 0, "CLASSIFICATION_TYPE": "U", "NORAD_CAT_ID": 66562, "ELEMENT_SET_NO": 999, "REV_AT_EPOCH": 425, "BSTAR": -0.0032207, "MEAN_MOTION_DOT": -0.00185244, "MEAN_MOTION_DDOT": 0}, "tle": {"line1": "1 66562U 25268F   25344.16668980 -.00185244  00000+0 -32207-2 0  9991", "line2": "2 66562  43.0008 136.2272 0001934 269.0873 217.1168 15.50632103  4250"}}, "geometry": {"type": "Point", "coordinates": [-138.92885336456325, 42.9325842612273]}}, {"type": "Feature", "properties": {"norad_id": 66563, "name": "STARLINK-35437", "group": "last-30-days", "lat": 42.963881379875055, "lon": -133.69285744276507, "alt_km": 409.70762116046353, "timestamp": "2025-12-10T11:33:52.172307+00:00", "meta": {"OBJECT_NAME": "STARLINK-35437", "OBJECT_ID": "2025-268G", "EPOCH": "2025-12-10T04:00:01.998720", "MEAN_MOTION": 15.50629037, "ECCENTRICITY": 0.0001889, "INCLINATION": 43.0006, "RA_OF_ASC_NODE": 136.2174, "ARG_OF_PERICENTER": 270.8597, "MEAN_ANOMALY": 219.1812, "EPHEMERIS_TYPE": 0, "CLASSIFICATION_TYPE": "U", "NORAD_CAT_ID": 66563, "ELEMENT_SET_NO": 999, "REV_AT_EPOCH": 425, "BSTAR": -0.0031536, "MEAN_MOTION_DOT": -0.00181457, "MEAN_MOTION_DDOT": 0}, "tle": {"line1": "1 66563U 25268G   25344.16668980 -.00181457  00000+0 -31536-2 0  9998", "line2": "2 66563  43.0006 136.2174 0001889 270.8597 219.1812 15.50629037  4252"}}, "geometry": {"type": "Point", "coordinates": [-133.69285744276507, 42.963881379875055]}}, {"type": "Feature", "properties": {"norad_id": 66564, "name": "STARLINK-35358", "group": "last-30-days", "lat": 42.8900989738876, "lon": -131.0893664992277, "alt_km": 409.65433809476326, "timestamp": "2025-12-10T11:33:52.172319+00:00", "meta": {"OBJECT_NAME": "STARLINK-35358", "OBJECT_ID": "2025-268H", "EPOCH": "2025-12-10T04:00:01.998720", "MEAN_MOTION": 15.50650662, "ECCENTRICITY": 0.0001927, "INCLINATION": 43.0004, "RA_OF_ASC_NODE": 136.213, "ARG_OF_PERICENTER": 276.2537, "MEAN_ANOMALY": 215.6654, "EPHEMERIS_TYPE": 0, "CLASSIFICATION_TYPE": "U", "NORAD_CAT_ID": 66564, "ELEMENT_SET_NO": 999, "REV_AT_EPOCH": 420, "BSTAR": -0.0029561, "MEAN_MOTION_DOT": -0.00170484, "MEAN_MOTION_DDOT": 0}, "tle": {"line1": "1 66564U 25268H   25344.16668980 -.00170484  00000+0 -29561-2 0  9992", "line2": "2 66564  43.0004 136.2130 0001927 276.2537 215.6654 15.50650662  4208"}}, "geometry": {"type": "Point", "coordinates": [-131.0893664992277, 42.8900989738876]}}, {"type": "Feature", "properties": {"norad_id": 66565, "name": "STARLINK-35893", "group": "last-30-days", "lat": 42.75668234638099, "lon": -128.48238053119195, "alt_km": 409.6694161442083, "timestamp": "2025-12-10T11:33:52.172331+00:00", "meta": {"OBJECT_NAME": "STARLINK-35893", "OBJECT_ID": "2025-268J", "EPOCH": "2025-12-10T04:00:01.998720", "MEAN_MOTION": 15.5066219, "ECCENTRICITY": 0.00019, "INCLINATION": 43.0004, "RA_OF_ASC_NODE": 136.2076, "ARG_OF_PERICENTER": 274.7741, "MEAN_ANOMALY": 219.0589, "EPHEMERIS_TYPE": 0, "CLASSIFICATION_TYPE": "U", "NORAD_CAT_ID": 66565, "ELEMENT_SET_NO": 999, "REV_AT_EPOCH": 425, "BSTAR": -0.003322, "MEAN_MOTION_DOT": -0.00191127, "MEAN_MOTION_DDOT": 0}, "tle": {"line1": "1 66565U 25268J   25344.16668980 -.00191127  00000+0 -33220-2 0  9997", "line2": "2 66565  43.0004 136.2076 0001900 274.7741 219.0589 15.50662190  4258"}}, "geometry": {"type": "Point", "coordinates": [-128.48238053119195, 42.75668234638099]}}, {"type": "Feature", "properties": {"norad_id": 66566, "name": "STARLINK-35871", "group": "last-30-days", "lat": 42.56396012616841, "lon": -125.88605538366133, "alt_km": 409.62178594339275, "timestamp": "2025-12-10T11:33:52.172341+00:00", "meta": {"OBJECT_NAME": "STARLINK-35871", "OBJECT_ID": "2025-268K", "EPOCH": "2025-12-10T04:00:01.998720", "MEAN_MOTION": 15.50665565, "ECCENTRICITY": 0.000179, "INCLINATION": 43.0004, "RA_OF_ASC_NODE": 136.2026, "ARG_OF_PERICENTER": 273.0409, "MEAN_ANOMALY": 222.711, "EPHEMERIS_TYPE": 0, "CLASSIFICATION_TYPE": "U", "NORAD_CAT_ID": 66566, "ELEMENT_SET_NO": 999, "REV_AT_EPOCH": 425, "BSTAR": -0.0033907, "MEAN_MOTION_DOT": -0.00194996, "MEAN_MOTION_DDOT": 0}, "tle": {"line1": "1 66566U 25268K   25344.16668980 -.00194996  00000+0 -33907-2 0  9997", "line2": "2 66566  43.0004 136.2026 0001790 273.0409 222.7110 15.50665565  4254"}}, "geometry": {"type": "Point", "coordinates": [-125.88605538366133, 42.56396012616841]}}, {"type": "Feature", "properties": {"norad_id": 66567, "name": "STARLINK-35825", "group": "last-30-days", "lat": 42.31339239221312, "lon": -123.31321212899537, "alt_km": 409.6677314435592, "timestamp": "2025-12-10T11:33:52.172351+00:00", "meta": {"OBJECT_NAME": "STARLINK-35825", "OBJECT_ID": "2025-268L", "EPOCH": "2025-12-10T04:00:01.998720", "MEAN_MOTION": 15.50661119, "ECCENTRICITY": 0.0001805, "INCLINATION": 43.0004, "RA_OF_ASC_NODE": 136.198, "ARG_OF_PERICENTER": 274.5408, "MEAN_ANOMALY": 223.1294, "EPHEMERIS_TYPE": 0, "CLASSIFICATION_TYPE": "U", "NORAD_CAT_ID": 66567, "ELEMENT_SET_NO": 999, "REV_AT_EPOCH": 425, "BSTAR": -0.0032594, "MEAN_MOTION_DOT": -0.00187604, "MEAN_MOTION_DDOT": 0}, "tle": {"line1": "1 66567U 25268L   25344.16668980 -.00187604  00000+0 -32594-2 0  9997", "line2": "2 66567  43.0004 136.1980 0001805 274.5408 223.1294 15.50661119  4254"}}, "geometry": {"type": "Point", "coordinates": [-123.31321212899537, 42.31339239221312]}}, {"type": "Feature", "properties": {"norad_id": 66568, "name": "STARLINK-35803", "group": "last-30-days", "lat": 42.00560265857139, "lon": -120.76365134503538, "alt_km": 409.64770025668895, "timestamp": "2025-12-10T11:33:52.172361+00:00", "meta": {"OBJECT_NAME": "STARLINK-35803", "OBJECT_ID": "2025-268M", "EPOCH": "2025-12-10T04:00:01.998720", "MEAN_MOTION": 15.50660386, "ECCENTRICITY": 0.0001715, "INCLINATION": 43.0004, "RA_OF_ASC_NODE": 136.1929, "ARG_OF_PERICENTER": 271.9784, "MEAN_ANOMALY": 227.6099, "EPHEMERIS_TYPE": 0, "CLASSIFICATION_TYPE": "U", "NORAD_CAT_ID": 66568, "ELEMENT_SET_NO": 999, "REV_AT_EPOCH": 425, "BSTAR": -0.0032547, "MEAN_MOTION_DOT": -0.00187332, "MEAN_MOTION_DDOT": 0}, "tle": {"line1": "1 66568U 25268M   25344.16668980 -.00187332  00000+0 -32547-2 0  9994", "line2": "2 66568  43.0004 136.1929 0001715 271.9784 227.6099 15.50660386  4253"}}, "geometry": {"type": "Point", "coordinates": [-120.76365134503538, 42.00560265857139]}}]}